[{"OBJECT_NAME":"STARLINK-5332","OBJECT_ID":"2023-010S","EPOCH":"2026-03-09T22:54:58.332384","MEAN_MOTION":14.9832634,"ECCENTRICITY":0.00026497,"INCLINATION":70.0033,"RA_OF_ASC_NODE":3.7143,"ARG_OF_PERICENTER":266.7398,"MEAN_ANOMALY":93.3458,"EPHEMERIS_TYPE":0,"CLASSIFICATION_TYPE":"U","NORAD_CAT_ID":55285,"ELEMENT_SET_NO":999,"REV_AT_EPOCH":17468,"BSTAR":0.00037084989,"MEAN_MOTION_DOT":4.334e-5,"MEAN_MOTION_DDOT":0},{"OBJECT_NAME":"CZ-6A DEB","OBJECT_ID":"2022-151RK","EPOCH":"2026-03-09T04:16:52.342176","MEAN_MOTION":15.00981633,"ECCENTRICITY":0.00383954,"INCLINATION":98.6273,"RA_OF_ASC_NODE":143.4522,"ARG_OF_PERICENTER":188.2396,"MEAN_ANOMALY":171.8199,"EPHEMERIS_TYPE":0,"CLASSIFICATION_TYPE":"U","NORAD_CAT_ID":54922,"ELEMENT_SET_NO":999,"REV_AT_EPOCH":17321,"BSTAR":0.0056092635,"MEAN_MOTION_DOT":0.00073321,"MEAN_MOTION_DDOT":0}]
